NORAD_CAT_ID,OBJECT_NAME,OBJECT_TYPE,EPOCH,MEAN_MOTION,ECCENTRICITY,INCLINATION,RA_OF_ASC_NODE,ARG_OF_PERICENTER,MEAN_ANOMALY,BSTAR,MEAN_MOTION_DOT,MEAN_MOTION_DDOT,TLE_LINE0,TLE_LINE1,TLE_LINE2,SEMIMAJOR_AXIS,PERIOD,APOGEE,PERIGEE,DECAYED
55753.0,STARLINK-5617,PAYLOAD,2024-02-18 04:41:49,14.98334111,0.0002899,70.0007,336.7098,265.5369,94.5459,7.9348e-05,8.54e-06,0.0,0 STARLINK-5617,1 55753U 23028N   24049.19570781  .00000854  00000-0  79348-4 0  9999,2 55753  70.0007 336.7098 0002899 265.5369  94.5459 14.98334111 53628,6950.18,96.107,574.06,570.03,0.0
55753.0,STARLINK-5617,PAYLOAD,2024-02-18 12:42:29,14.9833025,0.0002242,70.0026,335.8679,273.1208,86.9695,3.3087e-05,3.02e-06,0.0,0 STARLINK-5617,1 55753U 23028N   24049.52951318  .00000302  00000-0  33087-4 0  9993,2 55753  70.0026 335.8679 0002242 273.1208  86.9695 14.98330250 53675,6950.192,96.107,573.615,570.499,0.0
55753.0,STARLINK-5617,PAYLOAD,2024-02-18 19:07:02,14.98326008,0.0002953,70.0006,335.1938,267.9795,92.1026,3.129e-05,2.8e-06,0.0,0 STARLINK-5617,1 55753U 23028N   24049.79655331  .00000280  00000-0  31290-4 0  9997,2 55753  70.0006 335.1938 0002953 267.9795  92.1026 14.98326008 53713,6950.205,96.107,574.123,570.018,0.0
55753.0,STARLINK-5617,PAYLOAD,2024-02-18 22:19:18,14.98326008,0.0002939,70.0004,334.8573,267.9898,92.0924,2.2581e-05,1.76e-06,0.0,0 STARLINK-5617,1 55753U 23028N   24049.93007387  .00000176  00000-0  22581-4 0  9992,2 55753  70.0004 334.8573 0002939 267.9898  92.0924 14.98326008 53738,6950.205,96.107,574.113,570.028,0.0
55753.0,STARLINK-5617,PAYLOAD,2024-02-19 04:43:50,14.98332852,0.0002909,70.0006,334.184,265.9685,94.1142,6.697e-05,7.06e-06,0.0,0 STARLINK-5617,1 55753U 23028N   24050.19710851  .00000706  00000-0  66970-4 0  9998,2 55753  70.0006 334.1840 0002909 265.9685  94.1142 14.98332852 53772,6950.184,96.107,574.071,570.027,0.0
55753.0,STARLINK-5617,PAYLOAD,2024-02-19 22:21:19,14.98326432,0.0002861,70.0007,332.3328,264.5356,95.5477,6.8867e-05,7.29e-06,0.0,0 STARLINK-5617,1 55753U 23028N   24050.93147205  .00000729  00000-0  68867-4 0  9999,2 55753  70.0007 332.3328 0002861 264.5356  95.5477 14.98326432 53886,6950.204,96.107,574.057,570.08,0.0
55753.0,STARLINK-5617,PAYLOAD,2024-02-20 04:45:51,14.98332243,0.0002744,70.0011,331.6603,266.6532,93.4313,4.1474e-05,4.02e-06,0.0,0 STARLINK-5617,1 55753U 23028N   24051.19850967  .00000402  00000-0  41474-4 0  9997,2 55753  70.0011 331.6603 0002744 266.6532  93.4313 14.98332243 53926,6950.186,96.107,573.958,570.144,0.0
55753.0,STARLINK-5617,PAYLOAD,2024-02-20 22:23:19,14.98331789,0.0002607,70.0013,329.809,269.371,90.715,5.2084e-05,5.29e-06,0.0,0 STARLINK-5617,1 55753U 23028N   24051.93286888  .00000529  00000-0  52084-4 0  9993,2 55753  70.0013 329.8090 0002607 269.3710  90.7150 14.98331789 54039,6950.187,96.107,573.864,570.24,0.0
55753.0,STARLINK-5617,PAYLOAD,2024-02-21 11:12:24,14.98332564,0.0002476,70.0014,328.4621,269.158,90.9296,1.0093e-05,2.8e-07,0.0,0 STARLINK-5617,1 55753U 23028N   24052.46694830  .00000028  00000-0  10093-4 0  9990,2 55753  70.0014 328.4621 0002476 269.1580  90.9296 14.98332564 54116,6950.185,96.107,573.771,570.329,0.0
55753.0,STARLINK-5617,PAYLOAD,2024-02-21 22:25:21,14.98326397,0.0002472,70.0013,327.2846,263.5975,96.4902,-2.5126e-06,-1.23e-06,0.0,0 STARLINK-5617,1 55753U 23028N   24052.93427179 -.00000123  00000-0 -25126-5 0  9994,2 55753  70.0013 327.2846 0002472 263.5975  96.4902 14.98326397 54182,6950.204,96.107,573.787,570.351,0.0
55753.0,STARLINK-5617,PAYLOAD,2024-02-22 11:14:25,14.98323651,0.0002385,70.0013,325.9381,266.6035,93.4851,4.7354e-05,4.72e-06,0.0,0 STARLINK-5617,1 55753U 23028N   24053.46835373  .00000472  00000-0  47354-4 0  9993,2 55753  70.0013 325.9381 0002385 266.6035  93.4851 14.98323651 54264,6950.213,96.107,573.735,570.42,0.0
55753.0,STARLINK-5617,PAYLOAD,2024-02-22 19:15:05,14.98333754,0.0002694,70.0007,325.0968,266.7879,93.2972,8.6429e-07,-8.3e-07,0.0,0 STARLINK-5617,1 55753U 23028N   24053.80214727 -.00000083  00000-0  86429-6 0  9992,2 55753  70.0007 325.0968 0002694 266.7879  93.2972 14.98333754 54312,6950.181,96.107,573.919,570.174,0.0
55753.0,STARLINK-5617,PAYLOAD,2024-02-22 22:27:21,14.98332434,0.0002735,70.0005,324.7591,268.0141,92.0705,-2.3214e-05,-3.7e-06,0.0,0 STARLINK-5617,1 55753U 23028N   24053.93566837 -.00000370  00000-0 -23214-4 0  9999,2 55753  70.0005 324.7591 0002735 268.0141  92.0705 14.98332434 54338,6950.185,96.107,573.951,570.149,0.0
55753.0,STARLINK-5617,PAYLOAD,2024-02-23 11:16:26,14.98332116,0.0002231,70.0021,323.4117,282.7174,77.3735,-4.6683e-05,-6.5e-06,0.0,0 STARLINK-5617,1 55753U 23028N   24054.46975026 -.00000650  00000-0 -46683-4 0  9998,2 55753  70.0021 323.4117 0002231 282.7174  77.3735 14.98332116 54411,6950.186,96.107,573.602,570.501,0.0
55753.0,STARLINK-5617,PAYLOAD,2024-02-23 19:17:06,14.9832418,0.0002725,70.0009,322.5724,268.917,91.1676,1.2247e-05,5.3e-07,0.0,0 STARLINK-5617,1 55753U 23028N   24054.80355227  .00000053  00000-0  12247-4 0  9995,2 55753  70.0009 322.5724 0002725 268.9170  91.1676 14.98324180 54466,6950.211,96.107,573.97,570.182,0.0
55753.0,STARLINK-5617,PAYLOAD,2024-02-23 22:29:22,14.98322372,0.0002867,70.0007,322.2332,271.7666,88.3164,7.2715e-05,7.75e-06,0.0,0 STARLINK-5617,1 55753U 23028N   24054.93707174  .00000775  00000-0  72715-4 0  9998,2 55753  70.0007 322.2332 0002867 271.7666  88.3164 14.98322372 54488,6950.216,96.107,574.074,570.089,0.0
55753.0,STARLINK-5617,PAYLOAD,2024-02-24 11:18:27,14.98324752,0.0002773,70.0005,320.8872,274.7665,85.3177,0.0001025,1.13e-05,0.0,0 STARLINK-5617,1 55753U 23028N   24055.47115098  .00001130  00000-0  10250-3 0  9997,2 55753  70.0005 320.8872 0002773 274.7665  85.3177 14.98324752 54561,6950.209,96.107,574.001,570.147,0.0
55753.0,STARLINK-5617,PAYLOAD,2024-02-25 03:19:47,14.98333524,0.0002906,70.0001,319.2042,270.2671,89.8155,6.3706e-05,6.67e-06,0.0,0 STARLINK-5617,1 55753U 23028N   24056.13874501  .00000667  00000-0  63706-4 0  9991,2 55753  70.0001 319.2042 0002906 270.2671  89.8155 14.98333524 54667,6950.182,96.107,574.067,570.027,0.0
55753.0,STARLINK-5617,PAYLOAD,2024-02-25 11:20:28,14.98313119,0.0002743,70.0002,318.3628,277.149,82.9358,0.00041094,4.811e-05,0.0,0 STARLINK-5617,1 55753U 23028N   24056.47255094  .00004811  00000-0  41094-3 0  9998,2 55753  70.0002 318.3628 0002743 277.1490  82.9358 14.98313119 54715,6950.245,96.108,574.017,570.204,0.0
55753.0,STARLINK-5617,PAYLOAD,2024-02-25 19:21:08,14.98321285,0.0002927,70.0001,317.5213,270.46,89.6224,0.00027038,3.134e-05,0.0,0 STARLINK-5617,1 55753U 23028N   24056.80634596  .00003134  00000-0  27038-3 0  9992,2 55753  70.0001 317.5213 0002927 270.4600  89.6224 14.98321285 54762,6950.22,96.108,574.119,570.051,0.0
55753.0,STARLINK-5617,PAYLOAD,2024-02-25 22:33:23,14.98354745,0.0002757,70.0003,317.1845,275.0513,85.0332,-0.00030421,-3.723e-05,0.0,0 STARLINK-5617,1 55753U 23028N   24056.93985761 -.00003723  00000-0 -30421-3 0  9995,2 55753  70.0003 317.1845 0002757 275.0513  85.0332 14.98354745 54785,6950.116,96.105,573.898,570.065,0.0
55753.0,STARLINK-5617,PAYLOAD,2024-02-26 03:21:47,14.98340344,0.0002886,70.0002,316.6795,271.071,89.0118,0.00011988,1.338e-05,0.0,0 STARLINK-5617,1 55753U 23028N   24057.14013652  .00001338  00000-0  11988-3 0  9995,2 55753  70.0002 316.6795 0002886 271.0710  89.0118 14.98340344 54810,6950.161,96.106,574.032,570.02,0.0
55753.0,STARLINK-5617,PAYLOAD,2024-02-26 19:23:09,14.9832829,0.0002711,70.0013,314.9975,270.9379,89.1469,-4.8315e-05,-6.69e-06,0.0,0 STARLINK-5617,1 55753U 23028N   24057.80774761 -.00000669  00000-0 -48315-4 0  9996,2 55753  70.0013 314.9975 0002711 270.9379  89.1469 14.98328290 54916,6950.198,96.107,573.947,570.179,0.0
55753.0,STARLINK-5617,PAYLOAD,2024-02-26 22:35:25,14.98327378,0.0002746,70.0005,314.6601,270.0162,90.0682,-5.7144e-05,-7.75e-06,0.0,0 STARLINK-5617,1 55753U 23028N   24057.94126839 -.00000775  00000-0 -57144-4 0  9996,2 55753  70.0005 314.6601 0002746 270.0162  90.0682 14.98327378 54935,6950.201,96.107,573.975,570.157,0.0
55753.0,STARLINK-5617,PAYLOAD,2024-02-27 09:48:21,14.98328267,0.000298,70.0001,313.4816,272.7119,87.3699,-3.1719e-05,-4.71e-06,0.0,0 STARLINK-5617,1 55753U 23028N   24058.40858767 -.00000471  00000-0 -31719-4 0  9993,2 55753  70.0001 313.4816 0002980 272.7119  87.3699 14.98328267 55001,6950.198,96.107,574.134,569.992,0.0
55753.0,STARLINK-5617,PAYLOAD,2024-02-27 19:25:10,14.98330145,0.0002998,69.9995,312.4717,272.436,87.6456,-4.6541e-05,-6.48e-06,0.0,0 STARLINK-5617,1 55753U 23028N   24058.80914702 -.00000648  00000-0 -46541-4 0  9994,2 55753  69.9995 312.4717 0002998 272.4360  87.6456 14.98330145 55061,6950.192,96.107,574.141,569.974,0.0
55753.0,STARLINK-5617,PAYLOAD,2024-02-27 22:37:26,14.98329638,0.0003039,69.9996,312.1347,272.3951,87.686,-1.7952e-05,-3.07e-06,0.0,0 STARLINK-5617,1 55753U 23028N   24058.94266650 -.00000307  00000-0 -17952-4 0  9997,2 55753  69.9996 312.1347 0003039 272.3951  87.6860 14.98329638 55086,6950.194,96.107,574.171,569.947,0.0
55753.0,STARLINK-5617,PAYLOAD,2024-02-28 09:50:22,14.98338869,0.000291,69.9996,310.9564,272.7453,87.3373,-7.4728e-05,-9.85e-06,0.0,0 STARLINK-5617,1 55753U 23028N   24059.40998060 -.00000985  00000-0 -74728-4 0  9992,2 55753  69.9996 310.9564 0002910 272.7453  87.3373 14.98338869 55151,6950.165,96.106,574.053,570.008,0.0
55753.0,STARLINK-5617,PAYLOAD,2024-02-28 19:27:10,14.98326986,0.0002845,69.9996,309.9467,273.265,86.8183,9.9765e-05,1.097e-05,0.0,0 STARLINK-5617,1 55753U 23028N   24059.81054382  .00001097  00000-0  99765-4 0  9998,2 55753  69.9996 309.9467 0002845 273.2650  86.8183 14.98326986 55210,6950.202,96.107,574.045,570.09,0.0
55753.0,STARLINK-5617,PAYLOAD,2024-02-28 22:39:27,14.98326896,0.0002856,69.9997,309.6098,274.5606,85.5227,8.1171e-05,8.76e-06,0.0,0 STARLINK-5617,1 55753U 23028N   24059.94406472  .00000876  00000-0  81171-4 0  9999,2 55753  69.9997 309.6098 0002856 274.5606  85.5227 14.98326896 55232,6950.202,96.107,574.052,570.083,0.0
